[{"OBJECT_NAME":"STARLINK-5424","OBJECT_ID":"2022-175BF","EPOCH":"2026-03-09T06:12:47.378880","MEAN_MOTION":15.08863318,"ECCENTRICITY":0.00012769,"INCLINATION":53.2194,"RA_OF_ASC_NODE":26.1027,"ARG_OF_PERICENTER":93.2399,"MEAN_ANOMALY":266.874,"EPHEMERIS_TYPE":0,"CLASSIFICATION_TYPE":"U","NORAD_CAT_ID":54811,"ELEMENT_SET_NO":999,"REV_AT_EPOCH":18013,"BSTAR":0.00077622341,"MEAN_MOTION_DOT":0.00012095,"MEAN_MOTION_DDOT":0},{"OBJECT_NAME":"COSMOS 2535 DEB","OBJECT_ID":"2019-039H","EPOCH":"2026-03-09T01:37:49.505376","MEAN_MOTION":15.12536261,"ECCENTRICITY":0.00199509,"INCLINATION":97.5365,"RA_OF_ASC_NODE":108.6978,"ARG_OF_PERICENTER":50.248,"MEAN_ANOMALY":310.0505,"EPHEMERIS_TYPE":0,"CLASSIFICATION_TYPE":"U","NORAD_CAT_ID":44631,"ELEMENT_SET_NO":999,"REV_AT_EPOCH":34980,"BSTAR":0.00071319108,"MEAN_MOTION_DOT":0.00012434,"MEAN_MOTION_DDOT":0}]
